ORBCOMM FM06            
1 25118U 97084G   26162.50483920  .00001156  00000+0  35048-3 0  9998
2 25118  45.0141  80.0668 0001678 313.6183 220.3416 14.47549203493563
ORBCOMM FM04            
1 25159U 98007C   26162.68118444  .00000772  00000+0  30980-3 0  9997
2 25159 107.9626 158.0871 0041163 334.2447  25.6644 14.35731429475807
ORBCOMM FM19            
1 25415U 98046C   26162.59076640  .00000663  00000+0  25623-3 0  9993
2 25415  44.9940 270.1636 0004457 259.1454 120.1550 14.39486919455972
ORBCOMM FM20            
1 25416U 98046D   26162.59425426  .00000538  00000+0  22270-3 0  9990
2 25416  44.9946 278.0077 0001955 231.5694 128.4978 14.38059421455984
ORBCOMM FM27            
1 25481U 98053G   26162.21751690  .00000748  00000+0  28526-3 0  9997
2 25481  45.0066   3.7074 0000450 158.6503 201.4365 14.39130154449370
ORBCOMM FM32            
1 25982U 99065C   26162.38157141  .00000410  00000+0  18425-3 0  9999
2 25982  45.0137 200.7205 0004848   4.7043 355.3850 14.37123662386254
ORBCOMM FM109           
1 40086U 14040A   26162.13987668  .00000338  00000+0  10777-3 0  9990
2 40086  47.0025 120.0774 0001750 230.5593 129.5138 14.58838155633468
ORBCOMM FM114           
1 41179U 15081A   26162.36260887  .00000369  00000+0  11441-3 0  9995
2 41179  47.0059  29.5421 0002127 183.9472 176.1397 14.58851913556902
ORBCOMM FM110           
1 41182U 15081D   26162.35108696  .00000574  00000+0  15771-3 0  9995
2 41182  47.0030  29.0373 0002713  41.4135 318.6956 14.58871310556773
ORBCOMM FM118           
1 41183U 15081E   26161.35803056  .00002098  00000+0  47979-3 0  9995
2 41183  47.0037  34.0634 0003091 351.4383   8.6449 14.58873126556732
ORBCOMM FM112           
1 41184U 15081F   26162.66394345  .00000528  00000+0  14792-3 0  9990
2 41184  47.0000 296.3651 0003403 194.0048 166.0744 14.58896043558148
ORBCOMM FM113           
1 41185U 15081G   26162.64039633  .00000366  00000+0  11367-3 0  9990
2 41185  47.0017 296.8498 0001968 202.9654 157.1144 14.58852950558129
ORBCOMM FM108           
1 41187U 15081J   26162.39737644  .00000319  00000+0  10383-3 0  9996
2 41187  47.0051 209.5722 0002650 198.8914 161.1874 14.58864517559231
ORBCOMM FM117           
1 41188U 15081K   26162.43136015  .00000324  00000+0  10490-3 0  9992
2 41188  46.9998 208.0466 0003193 200.5822 159.4936 14.58860915559283
ORBCOMM FM116           
1 41189U 15081L   26162.06944096  .00000524  00000+0  14702-3 0  9990
2 41189  47.0034 299.5479 0000894  20.3124 339.7798 14.58873761558049
